KUIPER-00605            
1 69288U 26118X   26186.25005787 -.01241664  00000+0 -55515-1 0  9995
2 69288  51.8766 326.4445 0005102 251.0454 132.1787 15.23754031  2052
KUIPER-00606            
1 69289U 26118Y   26185.80163793  .00073192  00000+0  19092-2 0  9995
2 69289  51.8730 327.9822 0004592 232.3906 127.6664 15.38155088  6695
KUIPER-00607            
1 69290U 26118Z   26185.80849008  .00031843  00000+0  85073-3 0  9997
2 69290  51.8694 328.0246 0005283 232.9040 127.1465 15.37796591  6694
KUIPER-00608            
1 69291U 26118AA  26185.79270275  .00052712  00000+0  15711-2 0  9999
2 69291  51.8626 328.6320 0007775 254.5693 105.4433 15.34127558  6682
KUIPER-00610            
1 69292U 26118AB  26185.65912691  .00053441  00000+0  13784-2 0  9998
2 69292  51.8755 328.5321 0001730 255.5114 104.5681 15.38649239  6673
KUIPER-00613            
1 69293U 26118AC  26186.25005787 -.00143752  00000+0 -53516-2 0  9999
2 69293  51.8673 326.7208 0009868 247.3224 343.1517 15.27480893  3828
KUIPER-00618            
1 69294U 26118AD  26185.66028373  .00042654  00000+0  11510-2 0  9995
2 69294  51.8753 328.5380 0000918 233.7362 126.3540 15.37357695  6675
KUIPER-00620            
1 69295U 26118AE  26185.78841518  .00031062  00000+0  80868-3 0  9997
2 69295  51.8736 327.8992 0001421 186.0880 174.0090 15.38616570  6696
KUIPER-00423            
1 69592U 26140A   26185.72459765  .00061233  00000+0  15846-2 0  9991
2 69592  51.8809 313.7629 0013665 229.9746 130.0043 15.38400119  3933
KUIPER-00428            
1 69593U 26140B   26185.00003472 -.00001916  00000+0 -41820-4 0  9990
2 69593  51.8819 317.5706 0007595 353.9697 163.8280 15.36707463  3758
KUIPER-00481            
1 69594U 26140C   26186.25005787  .00083781  00000+0  22068-2 0  9999
2 69594  51.8788 311.2957 0011174 239.3633 112.5227 15.37742307  3454
KUIPER-00490            
1 69595U 26140D   26185.74114267  .00065526  00000+0  17335-2 0  9995
2 69595  51.8782 313.8621 0006263 299.3763  60.6598 15.37762782  3934
KUIPER-00493            
1 69596U 26140E   26185.75532904  .00071236  00000+0  19600-2 0  9991
2 69596  51.8833 313.9597 0007227 359.4727   0.6251 15.36503618  3934
KUIPER-00496            
1 69597U 26140F   26185.76457741 -.00011897  00000+0 -33806-3 0  9992
2 69597  51.8797 314.0140 0010063  18.3048 341.8298 15.34614214  3933
KUIPER-00513            
1 69598U 26140G   26185.73922072  .00058142  00000+0  15312-2 0  9997
2 69598  51.8815 313.8573 0006860 298.3893  61.6402 15.37953756  3934
KUIPER-00516            
1 69599U 26140H   26185.74370862  .00069798  00000+0  18656-2 0  9996
2 69599  51.8819 313.8792 0006701 310.3423  49.6978 15.37415070  3936
